[{"OBJECT_NAME":"SUPERVIEW-1 03","OBJECT_ID":"2018-002A","EPOCH":"2026-03-09T22:14:33.880992","MEAN_MOTION":15.35916978,"ECCENTRICITY":0.00509393,"INCLINATION":97.3162,"RA_OF_ASC_NODE":154.1458,"ARG_OF_PERICENTER":177.0269,"MEAN_ANOMALY":183.1288,"EPHEMERIS_TYPE":0,"CLASSIFICATION_TYPE":"U","NORAD_CAT_ID":43099,"ELEMENT_SET_NO":999,"REV_AT_EPOCH":45311,"BSTAR":0.00062641306,"MEAN_MOTION_DOT":0.00022818,"MEAN_MOTION_DDOT":0},{"OBJECT_NAME":"STARLINK-32470","OBJECT_ID":"2024-222B","EPOCH":"2026-03-08T14:16:58.090656","MEAN_MOTION":15.27617045,"ECCENTRICITY":0.00010814,"INCLINATION":43.0014,"RA_OF_ASC_NODE":142.1928,"ARG_OF_PERICENTER":239.1347,"MEAN_ANOMALY":120.9398,"EPHEMERIS_TYPE":0,"CLASSIFICATION_TYPE":"U","NORAD_CAT_ID":62115,"ELEMENT_SET_NO":999,"REV_AT_EPOCH":7273,"BSTAR":0.0015505794,"MEAN_MOTION_DOT":0.00042702,"MEAN_MOTION_DDOT":0}]
